CCSDS_OMM_VERS = 2.0
CREATION_DATE  = 
ORIGINATOR     = 

OBJECT_NAME    = SL-14 R/B
OBJECT_ID      = 1986-046B
CENTER_NAME    = EARTH
REF_FRAME      = TEME
TIME_SYSTEM    = UTC
MEAN_ELEMENT_THEORY = SGP/SGP4

EPOCH          = 2026-01-26T15:25:19.048512
MEAN_MOTION    = 14.85546002
ECCENTRICITY   = .00233238
INCLINATION    = 82.4833
RA_OF_ASC_NODE = 119.9107
ARG_OF_PERICENTER = 10.8025
MEAN_ANOMALY   = 349.3686

EPHEMERIS_TYPE = 0
CLASSIFICATION_TYPE = U
NORAD_CAT_ID   = 16792
ELEMENT_SET_NO = 999
REV_AT_EPOCH   = 12016
BSTAR          = .88684224E-4
MEAN_MOTION_DOT = .794E-5
MEAN_MOTION_DDOT = 0

CCSDS_OMM_VERS = 2.0
CREATION_DATE  = 
ORIGINATOR     = 

OBJECT_NAME    = SL-14 R/B
OBJECT_ID      = 1986-055B
CENTER_NAME    = EARTH
REF_FRAME      = TEME
TIME_SYSTEM    = UTC
MEAN_ELEMENT_THEORY = SGP/SGP4

EPOCH          = 2026-01-26T12:08:39.295104
MEAN_MOTION    = 14.85592116
ECCENTRICITY   = .00203372
INCLINATION    = 82.5221
RA_OF_ASC_NODE = 166.3078
ARG_OF_PERICENTER = 110.3370
MEAN_ANOMALY   = 317.3678

EPHEMERIS_TYPE = 0
CLASSIFICATION_TYPE = U
NORAD_CAT_ID   = 16882
ELEMENT_SET_NO = 999
REV_AT_EPOCH   = 11310
BSTAR          = .11174932E-3
MEAN_MOTION_DOT = .994E-5
MEAN_MOTION_DDOT = 0

CCSDS_OMM_VERS = 2.0
CREATION_DATE  = 
ORIGINATOR     = 

OBJECT_NAME    = AJISAI (EGS)
OBJECT_ID      = 1986-061A
CENTER_NAME    = EARTH
REF_FRAME      = TEME
TIME_SYSTEM    = UTC
MEAN_ELEMENT_THEORY = SGP/SGP4

EPOCH          = 2026-01-26T15:06:22.941216
MEAN_MOTION    = 12.44515300
ECCENTRICITY   = .00112895
INCLINATION    = 50.0061
RA_OF_ASC_NODE = 222.6839
ARG_OF_PERICENTER = 178.9041
MEAN_ANOMALY   = 227.0231

EPHEMERIS_TYPE = 0
CLASSIFICATION_TYPE = U
NORAD_CAT_ID   = 16908
ELEMENT_SET_NO = 999
REV_AT_EPOCH   = 46276
BSTAR          = .17288904E-3
MEAN_MOTION_DOT = -.73E-6
MEAN_MOTION_DDOT = 0

CCSDS_OMM_VERS = 2.0
CREATION_DATE  = 
ORIGINATOR     = 

OBJECT_NAME    = COSMOS 1812
OBJECT_ID      = 1987-003A
CENTER_NAME    = EARTH
REF_FRAME      = TEME
TIME_SYSTEM    = UTC
MEAN_ELEMENT_THEORY = SGP/SGP4

EPOCH          = 2026-01-26T00:47:04.953408
MEAN_MOTION    = 15.88282619
ECCENTRICITY   = .00009723
INCLINATION    = 82.4797
RA_OF_ASC_NODE = 243.6622
ARG_OF_PERICENTER = 25.9520
MEAN_ANOMALY   = 334.1800

EPHEMERIS_TYPE = 0
CLASSIFICATION_TYPE = U
NORAD_CAT_ID   = 17295
ELEMENT_SET_NO = 999
REV_AT_EPOCH   = 13765
BSTAR          = .82300747E-3
MEAN_MOTION_DOT = .230474E-2
MEAN_MOTION_DDOT = 0

CCSDS_OMM_VERS = 2.0
CREATION_DATE  = 
ORIGINATOR     = 

OBJECT_NAME    = SL-14 R/B
OBJECT_ID      = 1987-024B
CENTER_NAME    = EARTH
REF_FRAME      = TEME
TIME_SYSTEM    = UTC
MEAN_ELEMENT_THEORY = SGP/SGP4

EPOCH          = 2026-01-26T08:30:40.409568
MEAN_MOTION    = 14.86086576
ECCENTRICITY   = .0019269
INCLINATION    = 82.5303
RA_OF_ASC_NODE = 132.5464
ARG_OF_PERICENTER = 44.5251
MEAN_ANOMALY   = 315.7509

EPHEMERIS_TYPE = 0
CLASSIFICATION_TYPE = U
NORAD_CAT_ID   = 17567
ELEMENT_SET_NO = 999
REV_AT_EPOCH   = 8184
BSTAR          = .95319357E-4
MEAN_MOTION_DOT = .861E-5
MEAN_MOTION_DDOT = 0

CCSDS_OMM_VERS = 2.0
CREATION_DATE  = 
ORIGINATOR     = 

OBJECT_NAME    = COSMOS 1833
OBJECT_ID      = 1987-027A
CENTER_NAME    = EARTH
REF_FRAME      = TEME
TIME_SYSTEM    = UTC
MEAN_ELEMENT_THEORY = SGP/SGP4

EPOCH          = 2026-01-26T12:40:30.793152
MEAN_MOTION    = 14.13051616
ECCENTRICITY   = .00245845
INCLINATION    = 70.9196
RA_OF_ASC_NODE = 54.6307
ARG_OF_PERICENTER = 270.4802
MEAN_ANOMALY   = 89.3501

EPHEMERIS_TYPE = 0
CLASSIFICATION_TYPE = U
NORAD_CAT_ID   = 17589
ELEMENT_SET_NO = 999
REV_AT_EPOCH   = 436
BSTAR          = .14112963E-3
MEAN_MOTION_DOT = .216E-5
MEAN_MOTION_DDOT = 0

CCSDS_OMM_VERS = 2.0
CREATION_DATE  = 
ORIGINATOR     = 

OBJECT_NAME    = SL-16 R/B
OBJECT_ID      = 1987-027B
CENTER_NAME    = EARTH
REF_FRAME      = TEME
TIME_SYSTEM    = UTC
MEAN_ELEMENT_THEORY = SGP/SGP4

EPOCH          = 2026-01-26T08:11:49.333344
MEAN_MOTION    = 14.17160175
ECCENTRICITY   = .00058831
INCLINATION    = 71.0037
RA_OF_ASC_NODE = 5.7300
ARG_OF_PERICENTER = 210.0151
MEAN_ANOMALY   = 150.0637

EPHEMERIS_TYPE = 0
CLASSIFICATION_TYPE = U
NORAD_CAT_ID   = 17590
ELEMENT_SET_NO = 999
REV_AT_EPOCH   = 934
BSTAR          = .10351504E-3
MEAN_MOTION_DOT = .161E-5
MEAN_MOTION_DDOT = 0

CCSDS_OMM_VERS = 2.0
CREATION_DATE  = 
ORIGINATOR     = 

OBJECT_NAME    = SL-14 R/B
OBJECT_ID      = 1987-038B
CENTER_NAME    = EARTH
REF_FRAME      = TEME
TIME_SYSTEM    = UTC
MEAN_ELEMENT_THEORY = SGP/SGP4

EPOCH          = 2026-01-26T07:52:00.030432
MEAN_MOTION    = 14.85320478
ECCENTRICITY   = .00180264
INCLINATION    = 82.5037
RA_OF_ASC_NODE = 336.7021
ARG_OF_PERICENTER = 307.9573
MEAN_ANOMALY   = 52.0013

EPHEMERIS_TYPE = 0
CLASSIFICATION_TYPE = U
NORAD_CAT_ID   = 17912
ELEMENT_SET_NO = 999
REV_AT_EPOCH   = 7294
BSTAR          = .10864935E-3
MEAN_MOTION_DOT = .96E-5
MEAN_MOTION_DDOT = 0

CCSDS_OMM_VERS = 2.0
CREATION_DATE  = 
ORIGINATOR     = 

OBJECT_NAME    = COSMOS 1844
OBJECT_ID      = 1987-041A
CENTER_NAME    = EARTH
REF_FRAME      = TEME
TIME_SYSTEM    = UTC
MEAN_ELEMENT_THEORY = SGP/SGP4

EPOCH          = 2026-01-26T12:53:23.637696
MEAN_MOTION    = 14.14534842
ECCENTRICITY   = .00284601
INCLINATION    = 70.8990
RA_OF_ASC_NODE = 123.0891
ARG_OF_PERICENTER = 85.5620
MEAN_ANOMALY   = 274.8752

EPHEMERIS_TYPE = 0
CLASSIFICATION_TYPE = U
NORAD_CAT_ID   = 17973
ELEMENT_SET_NO = 999
REV_AT_EPOCH   = 99762
BSTAR          = -.34642418E-4
MEAN_MOTION_DOT = -.115E-5
MEAN_MOTION_DDOT = 0

CCSDS_OMM_VERS = 2.0
CREATION_DATE  = 
ORIGINATOR     = 

OBJECT_NAME    = SL-14 R/B
OBJECT_ID      = 1987-055B
CENTER_NAME    = EARTH
REF_FRAME      = TEME
TIME_SYSTEM    = UTC
MEAN_ELEMENT_THEORY = SGP/SGP4

EPOCH          = 2026-01-26T12:20:16.253664
MEAN_MOTION    = 14.85575119
ECCENTRICITY   = .0021425
INCLINATION    = 82.4978
RA_OF_ASC_NODE = 28.7800
ARG_OF_PERICENTER = 149.2480
MEAN_ANOMALY   = 210.9996

EPHEMERIS_TYPE = 0
CLASSIFICATION_TYPE = U
NORAD_CAT_ID   = 18153
ELEMENT_SET_NO = 999
REV_AT_EPOCH   = 6367
BSTAR          = .86052984E-4
MEAN_MOTION_DOT = .771E-5
MEAN_MOTION_DDOT = 0

CCSDS_OMM_VERS = 2.0
CREATION_DATE  = 
ORIGINATOR     = 

OBJECT_NAME    = COSMOS 1867
OBJECT_ID      = 1987-060A
CENTER_NAME    = EARTH
REF_FRAME      = TEME
TIME_SYSTEM    = UTC
MEAN_ELEMENT_THEORY = SGP/SGP4

EPOCH          = 2026-01-26T12:34:53.827968
MEAN_MOTION    = 14.31495579
ECCENTRICITY   = .00139719
INCLINATION    = 65.0102
RA_OF_ASC_NODE = 64.7878
ARG_OF_PERICENTER = 275.4124
MEAN_ANOMALY   = 84.5366

EPHEMERIS_TYPE = 0
CLASSIFICATION_TYPE = U
NORAD_CAT_ID   = 18187
ELEMENT_SET_NO = 999
REV_AT_EPOCH   = 1390
BSTAR          = .49542097E-4
MEAN_MOTION_DOT = .32E-6
MEAN_MOTION_DDOT = 0

CCSDS_OMM_VERS = 2.0
CREATION_DATE  = 
ORIGINATOR     = 

OBJECT_NAME    = SL-14 R/B
OBJECT_ID      = 1988-001B
CENTER_NAME    = EARTH
REF_FRAME      = TEME
TIME_SYSTEM    = UTC
MEAN_ELEMENT_THEORY = SGP/SGP4

EPOCH          = 2026-01-26T12:09:26.012448
MEAN_MOTION    = 14.85476886
ECCENTRICITY   = .00186535
INCLINATION    = 82.5103
RA_OF_ASC_NODE = 235.0401
ARG_OF_PERICENTER = 22.4081
MEAN_ANOMALY   = 337.7946

EPHEMERIS_TYPE = 0
CLASSIFICATION_TYPE = U
NORAD_CAT_ID   = 18749
ELEMENT_SET_NO = 999
REV_AT_EPOCH   = 3576
BSTAR          = .77780193E-4
MEAN_MOTION_DOT = .697E-5
MEAN_MOTION_DDOT = 0

